ORBCOMM-X               
1 21576U 91050C   25087.46966898  .00000982  00000+0  30492-3 0  9993
2 21576  98.3504 155.6908 0004824  77.8855 282.2876 14.43169979770691
ORBCOMM FM01            
1 23545U 95017A   25087.48109709  .00012798  00000+0  13741-2 0  9995
2 23545  69.9618 275.2114 0000774 157.9593 202.1595 14.88719581600494
ORBCOMM FM02            
1 23546U 95017B   25086.99312411  .00019154  00000+0  20239-2 0  9990
2 23546  69.9644 296.0342 0001829 114.5800 245.5545 14.89240639600063
ORBCOMM FM08            
1 25112U 97084A   25087.25868409  .00004347  00000+0  12626-2 0  9999
2 25112  45.0143  36.2619 0005453 213.9552 146.0950 14.45432257429660
ORBCOMM FM10            
1 25113U 97084B   25087.29710213  .00003815  00000+0  11182-2 0  9998
2 25113  45.0154  38.3181 0003001 176.4717 183.6156 14.45218441604817
ORBCOMM FM11            
1 25114U 97084C   25087.21862600  .00004208  00000+0  12354-2 0  9998
2 25114  45.0139  39.1814 0003858 176.7636 183.3240 14.44973879429768
ORBCOMM FM12            
1 25115U 97084D   25087.18234054  .00004161  00000+0  12214-2 0  9994
2 25115  45.0147  39.1145 0002808 176.5367 183.5504 14.44999204429550
ORBCOMM FM09            
1 25116U 97084E   25087.27706121  .00004144  00000+0  12194-2 0  9992
2 25116  45.0152  39.5154 0003999 155.2335 204.8708 14.44887160429776
